MTI                     
1 26102U 00014A   18039.76789340  .00002555  00000-0  48395-4 0  9991
2 26102  97.5821 227.3723 0008578 126.3017 359.8045 15.49375652991122
CFESAT                  
1 30777U 07006F   18039.42026923  .00003032  00000-0  95717-4 0  9997
2 30777  35.4273  31.8606 0006557 312.5962  47.4210 15.32531545604254
SPIRALE A               
1 33751U 09008C   18039.53896074 -.00000005  00000-0  89020-4 0  9998
2 33751   2.0703 300.2335 5481729 161.8167 230.3563  4.58676390121706
SPIRALE B               
1 33752U 09008D   18038.61913321  .00002898  00000-0  49083-3 0  9997
2 33752   1.8910 238.2866 6956362 277.1134  14.6132  2.70951129 81224
SAPPHIRE                
1 39088U 13009C   18039.68969469 -.00000013  00000-0  10933-4 0  9994
2 39088  98.5383 245.0938 0010679 320.3695  39.6708 14.34164255259248
